FID,Store_Name,Sells_fres,Longitude,Latitude,Address,City,State,Zip5,Zip4,County
0,DOLLAR GENERAL 1134,0.000000000000000,-85.803580999999994,38.740622999999999,170 S Highway 31,Austin,IN,47102.000000000000000,1326.000000000000000,SCOTT
1,PAPA MURPHY'S TAKE-N-BAKE PIZZA,0.000000000000000,-85.759879999999995,38.328747000000000,1305 Veterans Pkwy,Clarksville,IN,47129.000000000000000,7750.000000000000000,CLARK
2,Meijer Inc 220,1.000000000000000,-85.795715000000001,38.350059999999999,4222 Charlestown Rd,New Albany,IN,47150.000000000000000,9567.000000000000000,FLOYD
3,Davis Nursery and Country Market,1.000000000000000,-85.725182000000004,38.300826999999998,1708 E 10th St,Jeffersonville,IN,47130.000000000000000,6273.000000000000000,CLARK
4,SAV-A-STEP FOOD MART #41,0.000000000000000,-86.110016000000002,38.407867000000003,14195 Greene St NE,Palmyra,IN,47164.000000000000000,8110.000000000000000,HARRISON
5,Target Store 2068,1.000000000000000,-85.764403999999999,38.326244000000003,1125 Veterans Pkwy,Clarksville,IN,47129.000000000000000,2371.000000000000000,CLARK
6,JAY-C PLUS 57,1.000000000000000,-85.672516000000002,38.452126000000000,9501 Highway 403,Charlestown,IN,47111.000000000000000,8939.000000000000000,CLARK
7,Circle K 52,0.000000000000000,-85.912796000000000,38.288994000000002,1038 W Knable Rd,Georgetown,IN,47122.000000000000000,9181.000000000000000,FLOYD
8,Circle K 126,0.000000000000000,-85.758719999999997,38.295867999999999,419 Eastern Blvd,Clarksville,IN,47129.000000000000000,2837.000000000000000,CLARK
9,WALGREENS 09710,0.000000000000000,-85.896422999999999,38.314075000000003,200 Lafollette Sta S,Floyds Knobs,IN,47119.000000000000000,9776.000000000000000,FLOYD
10,THORNTON OIL 156,0.000000000000000,-85.830771999999996,38.296309999999998,1401 State Road 111,New Albany,IN,47150.000000000000000,6033.000000000000000,FLOYD
11,DOLLAR TREE 0121,0.000000000000000,-85.754790999999997,38.318001000000002,1140 Lewis and Clark Pkwy,Clarksville,IN,47129.000000000000000,7735.000000000000000,CLARK
12,Spring Street Marathon,0.000000000000000,-85.799926999999997,38.296562000000002,2100 E Spring St,New Albany,IN,47150.000000000000000,1565.000000000000000,FLOYD
13,Dollar General 10863,0.000000000000000,-86.135704000000004,38.179630000000003,1480 Old Hwy 135 NE,Corydon,IN,47112.000000000000000,0.000000000000000,HARRISON
14,Dollar Tree 2928,0.000000000000000,-85.818100000000001,38.322783999999999,1929 McDonald Lane,New Albany,IN,47150.000000000000000,0.000000000000000,FLOYD
15,Circle K 2224,0.000000000000000,-85.763503999999998,38.301791999999999,820 Eastern Blvd,Clarksville,IN,47129.000000000000000,2337.000000000000000,CLARK
16,CVS Pharmacy 6780,0.000000000000000,-85.778769999999994,38.685585000000003,815 W McClain Ave,Scottsburg,IN,47170.000000000000000,1127.000000000000000,SCOTT
17,Circle K 2271,0.000000000000000,-85.703711999999996,38.353043000000000,5205 E Highway 62,Jeffersonville,IN,47130.000000000000000,8709.000000000000000,CLARK
18,Circle K 42,0.000000000000000,-85.756164999999996,38.392448000000002,602 S Indiana Ave,Sellersburg,IN,47172.000000000000000,0.000000000000000,CLARK
19,Circle K 86,0.000000000000000,-85.824225999999996,38.285904000000002,401 State St,New Albany,IN,47150.000000000000000,3618.000000000000000,FLOYD
20,Circle K 96,0.000000000000000,-85.790428000000006,38.685177000000003,1505 W McClain Ave,Scottsburg,IN,47170.000000000000000,1163.000000000000000,SCOTT
21,Circle K 130,0.000000000000000,-85.778228999999996,38.535995000000000,141 Colonels Way W,Henryville,IN,47126.000000000000000,9791.000000000000000,CLARK
22,Circle K 82,0.000000000000000,-86.142516999999998,38.219459999999998,825 W Highway 62,Corydon,IN,47112.000000000000000,1939.000000000000000,HARRISON
23,Gordon Food Service MP137,1.000000000000000,-85.766068000000004,38.325481000000003,1060 Veterans Pkwy,Clarksville,IN,47129.000000000000000,2354.000000000000000,CLARK
24,Circle K 2228,0.000000000000000,-85.798355000000001,38.335864999999998,3706 Charlestown Rd,New Albany,IN,47150.000000000000000,9575.000000000000000,FLOYD
25,Dollar General 11040,0.000000000000000,-85.542243999999997,38.560496999999998,329 N Highway 62,New Washington,IN,47162.000000000000000,9142.000000000000000,CLARK
26,William's Bakery,0.000000000000000,-85.774017000000001,38.298881999999999,1051 N Clark Blvd,Clarksville,IN,47129.000000000000000,1863.000000000000000,CLARK
27,Papa Murphy's Take N Bake Pizza,0.000000000000000,-86.131011999999998,38.231876000000000,1885 Old Highway 135 NW,Corydon,IN,47112.000000000000000,2012.000000000000000,HARRISON
28,Cooper's Corner Mart,0.000000000000000,-85.598609999999994,38.474949000000002,7302 Decker Ln,Charlestown,IN,47111.000000000000000,9741.000000000000000,CLARK
29,La Loma Food Market,0.000000000000000,-85.760681000000005,38.297913000000001,554 Eastern Blvd,Clarksville,IN,47129.000000000000000,2452.000000000000000,CLARK
30,Carnicerias Las Rositas,1.000000000000000,-85.769028000000006,38.311031000000000,1404 Blackiston Mill Rd #C,Clarksville,IN,47129.000000000000000,0.000000000000000,CLARK
31,Dollar Tree 1313,0.000000000000000,-85.838463000000004,38.306648000000003,470 New Albany Plz,New Albany,IN,47150.000000000000000,4656.000000000000000,FLOYD
32,Highway 60 Hometown Express LLC,0.000000000000000,-85.947509999999994,38.466983999999997,102 E Water St,Borden,IN,47106.000000000000000,8935.000000000000000,CLARK
33,Rite Aid 4029,0.000000000000000,-85.713149999999999,38.322741999999998,3001 E 10th St,Jeffersonville,IN,47130.000000000000000,0.000000000000000,CLARK
34,BP Station,0.000000000000000,-85.798209999999997,38.297497000000000,2202 E Spring St,New Albany,IN,47150.000000000000000,1563.000000000000000,FLOYD
35,Walgreens 07926,0.000000000000000,-85.777420000000006,38.367077000000002,5190 Charlestown Rd,New Albany,IN,47150.000000000000000,9429.000000000000000,FLOYD
36,Tienda Y Carneceria Los Compadres,1.000000000000000,-85.781609000000003,38.305038000000003,616 Providence Way,Clarksville,IN,47129.000000000000000,1533.000000000000000,CLARK
37,Rite Aid 4030,0.000000000000000,-85.764801000000006,38.325896999999998,1106 Veterans Pkwy,Clarksville,IN,47129.000000000000000,2370.000000000000000,CLARK
38,Family Dollar Store 7921,0.000000000000000,-86.100655000000003,38.603000999999999,308 S Main St,Salem,IN,47167.000000000000000,1322.000000000000000,WASHINGTON
39,Sam's Club 4851,1.000000000000000,-85.760024999999999,38.328682000000001,1301 Veterans Pkwy,Clarksville,IN,47129.000000000000000,7747.000000000000000,CLARK
40,Family Dollar Store 1095,0.000000000000000,-85.779517999999996,38.691535999999999,395 N Gardner St,Scottsburg,IN,47170.000000000000000,1309.000000000000000,SCOTT
41,Louisville Metro Koa,0.000000000000000,-85.754631000000003,38.279204999999997,900 Marriott Dr,Clarksville,IN,47129.000000000000000,3254.000000000000000,CLARK
42,Rainbow Blossom,1.000000000000000,-85.797691000000000,38.350735000000000,3003 Charlestown Crossing Way,New Albany,IN,47150.000000000000000,8301.000000000000000,FLOYD
43,Family Dollar Store 6412,0.000000000000000,-85.668976000000001,38.451050000000002,991 Market St,Charlestown,IN,47111.000000000000000,0.000000000000000,CLARK
44,Target 0139,1.000000000000000,-85.840903999999995,38.306156000000001,2209 State St,New Albany,IN,47150.000000000000000,4955.000000000000000,FLOYD
45,Family Dollar Store 1143,0.000000000000000,-85.813713000000007,38.300033999999997,1201 Vincennes St,New Albany,IN,47150.000000000000000,2512.000000000000000,FLOYD
46,Family Dollar Store 2128,0.000000000000000,-85.728904999999997,38.290984999999999,1025 Youngstown Shopping Ctr,Jeffersonville,IN,47130.000000000000000,4253.000000000000000,CLARK
47,Family Dollar 8098,0.000000000000000,-85.769347999999994,38.379283999999998,7414 Hwy 311,Sellersburg,IN,47172.000000000000000,0.000000000000000,CLARK
48,Family Dollar 3889,0.000000000000000,-86.136489999999995,38.228172000000001,445 Old Capital Plz NW,Corydon,IN,47112.000000000000000,2025.000000000000000,HARRISON
49,Family Dollar 7916,0.000000000000000,-86.097710000000006,38.316710999999998,1470 Highway 64 NE,New Salisbury,IN,47161.000000000000000,8400.000000000000000,HARRISON
50,Walgreens 10559,0.000000000000000,-86.135834000000003,38.229450000000000,1716 Highway 337 NW,Corydon,IN,47112.000000000000000,2028.000000000000000,HARRISON
51,Dollar General 11506,0.000000000000000,-85.951194999999998,38.295254000000000,7730 State Rd 64,Georgetown,IN,47122.000000000000000,0.000000000000000,FLOYD
52,Dollar Tree 3155,0.000000000000000,-85.728866999999994,38.291012000000002,1009 Youngstown Shopping Ctr,Jeffersonville,IN,47130.000000000000000,4253.000000000000000,CLARK
53,Dollar General 11763,0.000000000000000,-85.742408999999995,38.281165999999999,1004 Walnut St,Jeffersonville,IN,47130.000000000000000,3657.000000000000000,CLARK
54,Dollar General Store 11723,0.000000000000000,-86.014556999999996,38.501896000000002,424 E SR 60,Pekin,IN,47165.000000000000000,0.000000000000000,WASHINGTON
55,Family Dollar 7956,0.000000000000000,-85.778075999999999,38.535992000000000,216 Colonels Way W,Henryville,IN,47126.000000000000000,9792.000000000000000,CLARK
56,Dollar General 11726,0.000000000000000,-85.774085999999997,38.371712000000002,6915 County Rd 311,Sellersburg,IN,47172.000000000000000,0.000000000000000,CLARK
57,Dollar General 11780,0.000000000000000,-85.742064999999997,38.325214000000003,1715 Charlestown New Albany Rd,Jeffersonville,IN,47130.000000000000000,9709.000000000000000,CLARK
58,Circle K 2223,0.000000000000000,-85.764724999999999,38.388553999999999,101 Enterprise Way,Sellersburg,IN,47172.000000000000000,1062.000000000000000,CLARK
59,ALDI  37,1.000000000000000,-85.819359000000006,38.325054000000002,3118 Grant Line Rd,New Albany,IN,47150.000000000000000,2156.000000000000000,FLOYD
60,Scott Food Mart,0.000000000000000,-85.778274999999994,38.683487000000000,265 S Gardner St,Scottsburg,IN,47170.000000000000000,1009.000000000000000,SCOTT
61,Sav-a Step Food Mart 51,0.000000000000000,-85.770827999999995,38.382869999999997,100 Hunter Station Rd,Sellersburg,IN,47172.000000000000000,1877.000000000000000,CLARK
62,Sav-a Step Food Mart 54,0.000000000000000,-85.817229999999995,38.339916000000002,4016 Grant Line Rd,New Albany,IN,47150.000000000000000,2138.000000000000000,FLOYD
63,Sav-a Step Food Mart 53,0.000000000000000,-85.872955000000005,38.324081000000000,3693 Paoli Pike,Floyds Knobs,IN,47119.000000000000000,9737.000000000000000,FLOYD
64,Sav-a Step Food Mart 58,0.000000000000000,-85.979957999999996,38.369770000000003,9255 Highway 150,Greenville,IN,47124.000000000000000,9636.000000000000000,FLOYD
65,Sav-a Step Food Mart 60,0.000000000000000,-85.808884000000006,38.425373000000000,8715 Highway 111,Memphis,IN,47143.000000000000000,9622.000000000000000,CLARK
66,McClain Marathon,0.000000000000000,-85.793434000000005,38.685028000000003,1578 W McClain Ave,Scottsburg,IN,47170.000000000000000,1166.000000000000000,SCOTT
67,Hwy 62 Food Mart,0.000000000000000,-85.658271999999997,38.440620000000003,1023 Highway 62,Charlestown,IN,47111.000000000000000,1350.000000000000000,CLARK
68,Dollar Tree 4427,0.000000000000000,-86.100707999999997,38.601748999999998,405 S Main St,Salem,IN,47167.000000000000000,1323.000000000000000,WASHINGTON
69,Papa Murphys IN071,0.000000000000000,-85.712990000000005,38.323264999999999,3015 E 10th St,Jeffersonville,IN,47130.000000000000000,5901.000000000000000,CLARK
70,Love's Travel Stop 355,0.000000000000000,-85.770347999999998,38.489586000000003,13615 Blue Lick Rd,Memphis,IN,47143.000000000000000,9305.000000000000000,CLARK
71,Save-A-Food Mart,0.000000000000000,-85.761284000000003,38.298580000000001,605 Eastern Blvd,Clarksville,IN,47129.000000000000000,2453.000000000000000,CLARK
72,Dollar General 12731,0.000000000000000,-85.807816000000003,38.293368999999998,417 Vincennes St,New Albany,IN,47150.000000000000000,3053.000000000000000,FLOYD
73,Colwell Convenience Llc,0.000000000000000,-85.656966999999995,38.716911000000003,1670 N Sr 3,Lexington,IN,47138.000000000000000,0.000000000000000,SCOTT
74,Speedway 5544 5544,0.000000000000000,-85.785460999999998,38.685561999999997,1225 W Mcclain Ave,Scottsburg,IN,47170.000000000000000,1162.000000000000000,SCOTT
75,CVS 3962,0.000000000000000,-85.776199000000005,38.368481000000003,6710 Highway 311,Sellersburg,IN,47172.000000000000000,1864.000000000000000,CLARK
76,Little Foot Food Mart,0.000000000000000,-85.805488999999994,38.314194000000001,2589 Charlestown Rd,New Albany,IN,47150.000000000000000,2551.000000000000000,FLOYD
77,Morgans Market,0.000000000000000,-86.013381999999993,38.639026999999999,5155 E SR 56,Salem,IN,47167.000000000000000,0.000000000000000,WASHINGTON
78,Scottsburg Save-a-lot,1.000000000000000,-85.772018000000003,38.685775999999997,130 W McClain Ave,Scottsburg,IN,47170.000000000000000,2046.000000000000000,SCOTT
79,CVS 3975,0.000000000000000,-85.746253999999993,38.279407999999997,1002 Spring St,Jeffersonville,IN,47130.000000000000000,3641.000000000000000,CLARK
80,The Depot Express,0.000000000000000,-85.772002999999998,38.685780000000001,128 W McClain Ave,Scottsburg,IN,47170.000000000000000,2046.000000000000000,SCOTT
81,Palmyra Mini Mart,0.000000000000000,-86.110611000000006,38.408092000000003,735 Main St NE,Palmyra,IN,47164.000000000000000,8895.000000000000000,HARRISON
82,Dollar Tree 4829,0.000000000000000,-85.768401999999995,38.381470000000000,7605 Highway 311,Sellersburg,IN,47172.000000000000000,1817.000000000000000,CLARK
83,Highway 64 Fuel Center,0.000000000000000,-86.217262000000005,38.336094000000003,4995 Highway 64 NW,Depauw,IN,47115.000000000000000,9374.000000000000000,HARRISON
84,Northside Grocery,1.000000000000000,-85.807097999999996,38.753627999999999,218 Rural St,Austin,IN,47102.000000000000000,1934.000000000000000,SCOTT
85,Mahaganesh Inc./ Ramsey Food Mart,0.000000000000000,-86.152694999999994,38.323321999999997,1525 Highway 64 NW,Ramsey,IN,47166.000000000000000,8545.000000000000000,HARRISON
86,Speedway 5018,0.000000000000000,-85.768523999999999,38.310566000000001,401 E Lewis and Clark Pkwy,Clarksville,IN,47129.000000000000000,1727.000000000000000,CLARK
87,Four Seasons Grocery,0.000000000000000,-85.857819000000006,38.444794000000002,15120 State Road 60,Borden,IN,47106.000000000000000,8535.000000000000000,CLARK
88,Jaggi A Petroleum Inc dba: Food Mart,0.000000000000000,-85.801308000000006,38.323901999999997,2750 Charlestown Rd,New Albany,IN,47150.000000000000000,1981.000000000000000,FLOYD
89,Family Dollar 8521,0.000000000000000,-85.825592000000000,38.288615999999998,635 State St,New Albany,IN,47150.000000000000000,4733.000000000000000,FLOYD
90,Friendly Mart 3,0.000000000000000,-86.145859000000002,38.218864000000004,1007 Old Forest Rd Nw,Corydon,IN,47112.000000000000000,1909.000000000000000,HARRISON
91,Sav-a Step Food Mart 62,0.000000000000000,-85.751579000000007,38.329757999999998,1505 Veterans Pkwy,Jeffersonville,IN,47130.000000000000000,7138.000000000000000,CLARK
92,Kamla Kaur Inc,0.000000000000000,-86.082817000000006,38.597560999999999,1322 S Jackson St,Salem,IN,47167.000000000000000,9168.000000000000000,WASHINGTON
93,Kamla Kaur Inc,0.000000000000000,-86.096428000000003,38.316547000000000,1555 SR 64 NE,New Salisbury,IN,47161.000000000000000,0.000000000000000,HARRISON
94,Grab-n-go 4,0.000000000000000,-85.942520000000002,38.134911000000002,9760 Highway 211 Se,Elizabeth,IN,47117.000000000000000,8017.000000000000000,HARRISON
95,Five Star Food,0.000000000000000,-85.757491999999999,38.397086999999999,239 S Indiana Ave,Sellersburg,IN,47172.000000000000000,1533.000000000000000,CLARK
96,Four Quarters Mini Mart Llc,0.000000000000000,-85.542243999999997,38.562775000000002,102 S Highway 62,New Washington,IN,47162.000000000000000,9125.000000000000000,CLARK
97,Marathon,0.000000000000000,-85.774131999999994,38.540920000000000,201 N Francke Rd,Henryville,IN,47126.000000000000000,9487.000000000000000,CLARK
98,Cash Saver,1.000000000000000,-85.913177000000005,38.289745000000003,1042 N Luther Rd,Georgetown,IN,47122.000000000000000,9122.000000000000000,FLOYD
99,New Salisbury Market 17,0.000000000000000,-86.098015000000004,38.316723000000003,1450 Highway 64 Ne,New Salisbury,IN,47161.000000000000000,8400.000000000000000,HARRISON
100,Dollar Tree 2026,0.000000000000000,-86.151015999999998,38.193793999999997,2363 Highway NW 135,Corydon,IN,47112.000000000000000,0.000000000000000,HARRISON
101,Stop & Go Foodmart,0.000000000000000,-85.708679000000004,38.318171999999997,2402 Allison Ln,Jeffersonville,IN,47130.000000000000000,5946.000000000000000,CLARK
102,Discount Tobbaco And Deli,0.000000000000000,-85.815155000000004,38.301963999999998,1701 Charlestown Rd,New Albany,IN,47150.000000000000000,2549.000000000000000,FLOYD
103,Hwy 135 Fuel Mart,0.000000000000000,-86.140968000000001,38.157158000000003,3025 State Road 135 N,Corydon,IN,47112.000000000000000,0.000000000000000,HARRISON
104,Fivestar 2254,0.000000000000000,-86.131973000000002,38.232577999999997,225 Federal Dr Nw,Corydon,IN,47112.000000000000000,2077.000000000000000,HARRISON
105,Cash Saver,1.000000000000000,-85.740905999999995,38.273204999999997,128 E Maple St,Jeffersonville,IN,47130.000000000000000,3440.000000000000000,CLARK
106,Dylans Food Mart,0.000000000000000,-85.778937999999997,38.319220999999999,1894 Blackiston Mill Rd,Clarksville,IN,47129.000000000000000,1306.000000000000000,CLARK
107,Highway 135 Food & Fuel Center,0.000000000000000,-86.155754000000002,38.121116999999998,5530 IN Highway 135 SW,Corydon,IN,47112.000000000000000,6097.000000000000000,HARRISON
108,Shell Food Mart,0.000000000000000,-85.800308000000001,38.296455000000002,2025 E Spring St,New Albany,IN,47150.000000000000000,1664.000000000000000,FLOYD
109,Chelsea General Store,0.000000000000000,-85.524933000000004,38.650950999999999,5975 S State Road 62,Lexington,IN,47138.000000000000000,7509.000000000000000,SCOTT
110,New Middletown Quick Stop,0.000000000000000,-86.051063999999997,38.163898000000003,3970 Main St Se,New Middletown,IN,47160.000000000000000,7900.000000000000000,HARRISON
111,The Dutch Barn,1.000000000000000,-86.271750999999995,38.556930999999999,383 E Main St,Campbellsburg,IN,47108.000000000000000,8010.000000000000000,WASHINGTON
112,Sunoco Food Mart,0.000000000000000,-85.777962000000002,38.685665000000000,790 W Mcclain Ave,Scottsburg,IN,47170.000000000000000,1246.000000000000000,SCOTT
113,Allison Lane Food Market,1.000000000000000,-85.703261999999995,38.312153000000002,1702 Allison Ln,Jeffersonville,IN,47130.000000000000000,5807.000000000000000,CLARK
114,Latina America Meat Market,0.000000000000000,-85.818854999999999,38.329140000000002,3417 Grant Line Rd,New Albany,IN,47150.000000000000000,2164.000000000000000,FLOYD
115,Papa Murphy's IN070,0.000000000000000,-85.841651999999996,38.306870000000004,2221 State St,New Albany,IN,47150.000000000000000,4974.000000000000000,FLOYD
116,Big Lots 1310,0.000000000000000,-85.765152000000000,38.312179999999998,706 E Lewis & Clark,Clarksville,IN,47129.000000000000000,0.000000000000000,CLARK
117,My Gas Station,0.000000000000000,-85.768271999999996,38.381659999999997,7604 Highway 311,Sellersburg,IN,47172.000000000000000,1818.000000000000000,CLARK
118,Dollar General Store 15953,0.000000000000000,-85.702163999999996,38.356281000000003,5414 E Highway 62,Jeffersonville,IN,47130.000000000000000,8734.000000000000000,CLARK
119,Five Star Food Mart 2255,0.000000000000000,-86.127274000000000,38.235106999999999,2320 Landmark Ave Ne,Corydon,IN,47112.000000000000000,2018.000000000000000,HARRISON
120,Family Dollar 3237,0.000000000000000,-85.965980999999999,38.294517999999997,8390 State Rd 64,Georgetown,IN,47122.000000000000000,0.000000000000000,FLOYD
121,Fred Cammack Corydon Farmers Market,1.000000000000000,-86.124206999999998,38.209750999999997,124 S Mulberry St,Corydon,IN,47112.000000000000000,0.000000000000000,HARRISON
122,El Mercadito Grocery,1.000000000000000,-85.764556999999996,38.302982000000000,906 Eastern Blvd,Clarksville,IN,47129.000000000000000,1902.000000000000000,CLARK
123,New Albany Farmers Market,1.000000000000000,-85.821297000000001,38.285277999999998,202 E Market St,New Albany,IN,47150.000000000000000,3412.000000000000000,FLOYD
124,Hartlage Chevron,0.000000000000000,-85.727958999999998,38.290748999999998,1501 E 10th St,Jeffersonville,IN,47130.000000000000000,4529.000000000000000,CLARK
125,CVS 10657,0.000000000000000,-85.835960000000000,38.301434000000000,1950 State St,New Albany,IN,47150.000000000000000,4920.000000000000000,FLOYD
126,Main Street Meats LLC,1.000000000000000,-86.015738999999996,38.505077000000000,2 W Main St,Pekin,IN,47165.000000000000000,7939.000000000000000,WASHINGTON
127,Circle K 2425,0.000000000000000,-86.100227000000004,38.598067999999998,700 S Main St,Salem,IN,47167.000000000000000,1042.000000000000000,WASHINGTON
128,Dollar General 16159,0.000000000000000,-85.971312999999995,38.368034000000002,990 Heritage Way,Greenville,IN,47124.000000000000000,8601.000000000000000,FLOYD
129,Discount Tobacco & Market Limited,0.000000000000000,-85.821121000000005,38.306849999999997,2003 Grant Line Rd,New Albany,IN,47150.000000000000000,4032.000000000000000,FLOYD
130,Austin Sunoco,0.000000000000000,-85.822486999999995,38.739798999999998,118 S Dowling St,Austin,IN,47102.000000000000000,8911.000000000000000,SCOTT
131,Flowers Baking 1225,0.000000000000000,-85.799674999999993,38.296795000000003,2127 E Spring St,New Albany,IN,47150.000000000000000,1564.000000000000000,FLOYD
132,CVS/PHARMACY 10757,0.000000000000000,-85.769035000000002,38.311042999999998,1404 Blackiston Mill Rd,Clarksville,IN,47129.000000000000000,2288.000000000000000,CLARK
133,Peaster's LLC,0.000000000000000,-86.279754999999994,38.461502000000003,1 E US Highway 150,Hardinsburg,IN,47125.000000000000000,8559.000000000000000,WASHINGTON
134,Dollar General Store 16605,0.000000000000000,-85.770331999999996,38.541598999999998,223 College St,Henryville,IN,47126.000000000000000,9477.000000000000000,CLARK
135,New Albany Fresh Stop Market,1.000000000000000,-85.804012999999998,38.300559000000000,2023 Ekin Ave (Sojourn CMTY church),New Albany,IN,47150.000000000000000,4106.000000000000000,FLOYD
136,Dollar General 16970,0.000000000000000,-85.807509999999994,38.425465000000003,12017 Highway 60,Sellersburg,IN,47172.000000000000000,9643.000000000000000,CLARK
137,7 Star Food Mart,0.000000000000000,-85.753090000000000,38.405251000000000,492 N Indiana Ave,Sellersburg,IN,47172.000000000000000,1225.000000000000000,CLARK
138,Dollar General 16884,0.000000000000000,-86.098083000000003,38.316642999999999,1449 Highway 64 NE,New Salisbury,IN,47161.000000000000000,8435.000000000000000,HARRISON
139,Dollar General 17244,0.000000000000000,-86.213676000000007,38.093722999999997,1692 Heth Washington Rd SW,Central,IN,47110.000000000000000,0.000000000000000,HARRISON
140,Pilot Travel Center 152,0.000000000000000,-85.774017000000001,38.491787000000002,14013 Blue Lick Rd,Memphis,IN,47143.000000000000000,9309.000000000000000,CLARK
141,Walmart Supercenter 7087,1.000000000000000,-86.086121000000006,38.614437000000002,1309 E Hackberry St,Salem,IN,47167.000000000000000,9604.000000000000000,WASHINGTON
142,Sai Krupaa Inc,0.000000000000000,-86.122353000000004,38.210537000000002,344 E Chestnut St,Corydon,IN,47112.000000000000000,1202.000000000000000,HARRISON
143,Dairy Mart,0.000000000000000,-85.716376999999994,38.293163000000000,1821 E 8th St,Jeffersonville,IN,47130.000000000000000,4869.000000000000000,CLARK
144,Fuel Mart 783,0.000000000000000,-85.822517000000005,38.741672999999999,145 N Dowling St,Austin,IN,47102.000000000000000,8967.000000000000000,SCOTT
145,New Albany Valero,0.000000000000000,-85.829773000000003,38.283039000000002,327 W 5th St,New Albany,IN,47150.000000000000000,3555.000000000000000,FLOYD
146,S Singh Inc Dba Pick N Pump Food Mart,0.000000000000000,-85.747612000000004,38.370837999999999,7305 Highway 60,Sellersburg,IN,47172.000000000000000,1830.000000000000000,CLARK
147,Family Dollar Store 11684,0.000000000000000,-85.948043999999996,38.467258000000001,109 W Water St,Borden,IN,47106.000000000000000,8808.000000000000000,CLARK
148,Circle K 2394,0.000000000000000,-85.747726000000000,38.329352999999998,1700 Veterans Pkwy,Jeffersonville,IN,47130.000000000000000,0.000000000000000,CLARK
149,New Roots Jeffersonville Fresh Stop Market,1.000000000000000,-85.729195000000004,38.311646000000003,1201 Thomas V Bryant Dr,Jeffersonville,IN,47130.000000000000000,3850.000000000000000,CLARK
150,One Stop And Shop,0.000000000000000,-85.829993999999999,38.280445000000000,624 W Main St,New Albany,IN,47150.000000000000000,5930.000000000000000,FLOYD
151,Dollar General 2367,0.000000000000000,-85.721541999999999,38.306182999999997,1914 E 10th St,Jeffersonville,IN,47130.000000000000000,6018.000000000000000,CLARK
152,Dollar General 17652,0.000000000000000,-85.949814000000003,38.135066999999999,4395 N Highway 11 SE,Elizabeth,IN,47117.000000000000000,7834.000000000000000,HARRISON
153,Dollar General 18013,0.000000000000000,-85.775749000000005,38.648899000000000,32 W Leota Rd,Scottsburg,IN,47170.000000000000000,7100.000000000000000,SCOTT
154,Walmart 922,1.000000000000000,-86.139556999999996,38.226128000000003,2363 Hwy 135 NW,Corydon,IN,47112.000000000000000,0.000000000000000,HARRISON
155,Zack's Food Mart,0.000000000000000,-85.827117999999999,38.297049999999999,1223 Bono Rd,New Albany,IN,47150.000000000000000,4703.000000000000000,FLOYD
156,Walmart  1142,1.000000000000000,-85.796440000000004,38.685028000000003,1618 W McClain Ave,Scottsburg,IN,47170.000000000000000,1161.000000000000000,SCOTT
157,WALGREENS  3488,0.000000000000000,-85.745789000000002,38.278830999999997,934 Spring St,Jeffersonville,IN,47130.000000000000000,3639.000000000000000,CLARK
158,Circle K 2226,0.000000000000000,-85.725746000000001,38.299320000000002,1655 E 10th St,Jeffersonville,IN,47130.000000000000000,6223.000000000000000,CLARK
159,Scottsburg Motomart 3205,0.000000000000000,-85.780227999999994,38.685650000000003,890 W McClain Ave,Scottsburg,IN,47170.000000000000000,1155.000000000000000,SCOTT
160,Discount Tobacco and Deli,0.000000000000000,-85.760399000000007,38.284863000000001,230 W Stansifer Ave,Clarksville,IN,47129.000000000000000,2711.000000000000000,CLARK
161,KROGER L-395,1.000000000000000,-85.818755999999993,38.329407000000003,3400 GRANT LINE RD,NEW ALBANY,IN,47150.000000000000000,0.000000000000000,FLOYD
162,Circle K 2229,0.000000000000000,-85.829453000000001,38.280715999999998,602 W Main St,New Albany,IN,47150.000000000000000,5930.000000000000000,FLOYD
163,LIGHTNING FOOD MART,0.000000000000000,-85.805328000000003,38.314526000000001,2595 Charlestown Rd,New Albany,IN,47150.000000000000000,2551.000000000000000,FLOYD
164,WALGREENS  4447,0.000000000000000,-85.806847000000005,38.292774000000001,1702 E Spring St,New Albany,IN,47150.000000000000000,1652.000000000000000,FLOYD
165,SAVE A LOT 141,1.000000000000000,-85.728888999999995,38.290996999999997,1019 Youngstown Shopping Ctr,Jeffersonville,IN,47130.000000000000000,4253.000000000000000,CLARK
166,WALGREENS 3223,0.000000000000000,-85.771728999999993,38.308593999999999,220 E Lewis and Clark Pkwy,Clarksville,IN,47129.000000000000000,1724.000000000000000,CLARK
167,WALGREENS  4122,0.000000000000000,-85.801063999999997,38.325035000000000,2755 Charlestown Rd,New Albany,IN,47150.000000000000000,1980.000000000000000,FLOYD
168,Meijer Inc 167,1.000000000000000,-85.711265999999995,38.320960999999997,2750 Allison Ln,Jeffersonville,IN,47130.000000000000000,5952.000000000000000,CLARK
169,WALGREENS  6100,0.000000000000000,-85.713852000000003,38.323208000000001,2811 Holmans Ln,Jeffersonville,IN,47130.000000000000000,5915.000000000000000,CLARK
170,Circle K 2225,0.000000000000000,-85.743088000000000,38.324218999999999,3830 Hamburg Pike,Jeffersonville,IN,47130.000000000000000,9668.000000000000000,CLARK
171,SAVE-A-LOT 905,0.000000000000000,-85.825667999999993,38.288924999999999,624 State St,New Albany,IN,47150.000000000000000,4734.000000000000000,FLOYD
172,JAY C  1,0.000000000000000,-85.779640000000001,38.691479000000001,400 N Gardner St,Scottsburg,IN,47170.000000000000000,1312.000000000000000,SCOTT
173,JAY C #14 11,0.000000000000000,-86.136489999999995,38.228172000000001,389 Old Capital Plz NW,Corydon,IN,47112.000000000000000,2024.000000000000000,HARRISON
174,JAY C #81 80,1.000000000000000,-85.899231000000000,38.315837999999999,815 Highlander Point Dr,Floyds Knobs,IN,47119.000000000000000,9470.000000000000000,FLOYD
175,JAY C 86,0.000000000000000,-86.100470999999999,38.598731999999998,601 S Main St,Salem,IN,47167.000000000000000,1057.000000000000000,WASHINGTON
176,JAY C  87,1.000000000000000,-85.768401999999995,38.381470000000000,7605 Highway 311,Sellersburg,IN,47172.000000000000000,0.000000000000000,CLARK
177,RULER 205,1.000000000000000,-86.099914999999996,38.596801999999997,805 SOUTH MAIN STREET,SALEM,IN,47167.000000000000000,0.000000000000000,WASHINGTON
178,SALEM SAVE-A-LOT,1.000000000000000,-86.114670000000004,38.609417000000001,1110 W Mulberry St,Salem,IN,47167.000000000000000,1500.000000000000000,WASHINGTON
179,Walgreens 09854,0.000000000000000,-85.836860999999999,38.302238000000003,2015 State St,New Albany,IN,47150.000000000000000,4921.000000000000000,FLOYD
180,HUCKS  325,0.000000000000000,-85.804832000000005,38.742213999999997,11 W Main St,Austin,IN,47102.000000000000000,1303.000000000000000,SCOTT
181,CVS  3280,0.000000000000000,-86.136489999999995,38.228172000000001,255 Old Capital Plz NW,Corydon,IN,47112.000000000000000,2081.000000000000000,HARRISON
182,CVS 6722,0.000000000000000,-86.100418000000005,38.608711000000000,103 E hackberry St,Salem,IN,47167.000000000000000,1530.000000000000000,WASHINGTON
183,PIONEER VILLAGE,0.000000000000000,-85.710601999999994,38.736548999999997,3614 E State Road 256,Scottsburg,IN,47170.000000000000000,8811.000000000000000,SCOTT
184,Circle K 47,0.000000000000000,-85.813834999999997,38.741379000000002,714 W Main St,Austin,IN,47102.000000000000000,1560.000000000000000,SCOTT
185,Circle K 81,0.000000000000000,-85.820885000000004,38.307613000000003,2104 Grant Line Rd,New Albany,IN,47150.000000000000000,4037.000000000000000,FLOYD
186,Casey's General Store 2340,0.000000000000000,-85.669929999999994,38.461086000000002,1492 Market St,Charlestown,IN,47111.000000000000000,1800.000000000000000,CLARK
187,Casey's General Store 2294,0.000000000000000,-85.796570000000003,38.670363999999999,705 W Lake Rd W,Scottsburg,IN,47170.000000000000000,6969.000000000000000,SCOTT
188,Walmart  1476,1.000000000000000,-85.758010999999996,38.329262000000000,1351 Veterans Pkwy,Clarksville,IN,47129.000000000000000,7747.000000000000000,CLARK
189,Casey's General Store 2311,0.000000000000000,-86.118331999999995,38.609363999999999,1216 W Mulberry St,Salem,IN,47167.000000000000000,9450.000000000000000,WASHINGTON
190,Walmart  2691,1.000000000000000,-85.820167999999995,38.319397000000002,2910 Grant Line Rd,New Albany,IN,47150.000000000000000,2456.000000000000000,FLOYD
191,Shiremans Farm Market,1.000000000000000,-86.131512999999998,38.131518000000000,2081 Highway 135 NW,Corydon,IN,47112.000000000000000,0.000000000000000,HARRISON
192,KROGER  L-744,1.000000000000000,-85.799537999999998,38.332047000000003,2864 Charlestown Rd,New Albany,IN,47150.000000000000000,1978.000000000000000,FLOYD
193,KROGER L-762,1.000000000000000,-85.768257000000006,38.314689999999999,305 Lewis & Clark Pkwy,Clarksville,IN,47129.000000000000000,0.000000000000000,CLARK
194,Annas Oriental Food Store,0.000000000000000,-85.758965000000003,38.297195000000002,426 Kopp Ln,Clarksville,IN,47129.000000000000000,2841.000000000000000,CLARK
195,K & E Market,0.000000000000000,-86.252831000000000,38.647354000000000,40 E State Road 60,Campbellsburg,IN,47108.000000000000000,9010.000000000000000,WASHINGTON
196,SAVE A LOT 269,1.000000000000000,-85.702995000000001,38.311915999999997,1704 Allison Ln,Jeffersonville,IN,47130.000000000000000,5807.000000000000000,CLARK
197,MISS MARGUERITE'S PRODUCE CO,1.000000000000000,-85.874381999999997,38.441074000000000,16011 State Road 60,Borden,IN,47106.000000000000000,8636.000000000000000,CLARK
198,Rite Aid 4653,0.000000000000000,-85.899399000000003,38.315804000000000,810 Highlander Point Dr,Floyds Knobs,IN,47119.000000000000000,9470.000000000000000,FLOYD
199,Rite Aid 4654,0.000000000000000,-85.769081000000000,38.379916999999999,7505 State Road 311,Sellersburg,IN,47172.000000000000000,1815.000000000000000,CLARK
200,Rite Aid 3547,0.000000000000000,-85.670913999999996,38.452736000000002,9616 Highway 403,Charlestown,IN,47111.000000000000000,8902.000000000000000,CLARK
201,Rite Aid 7725,0.000000000000000,-85.801079000000001,38.295940000000002,2022 E Spring St,New Albany,IN,47150.000000000000000,1665.000000000000000,FLOYD
202,Rite Aid 4657,0.000000000000000,-85.725441000000004,38.300331000000000,1665 E 10th St,Jeffersonville,IN,47130.000000000000000,6276.000000000000000,CLARK
203,Rite Aid 3530,0.000000000000000,-86.100014000000002,38.597118000000002,803 S Main St,Salem,IN,47167.000000000000000,1043.000000000000000,WASHINGTON
204,Rite Aid 4652,0.000000000000000,-86.095291000000003,38.316516999999997,1673 Highway 64 NE,New Salisbury,IN,47161.000000000000000,8439.000000000000000,HARRISON
205,ALDI 34,1.000000000000000,-85.712249999999997,38.326698000000000,3131 E 10th St,Jeffersonville,IN,47130.000000000000000,7222.000000000000000,CLARK
206,Circle K 118,0.000000000000000,-85.670379999999994,38.453777000000002,1075 Market St,Charlestown,IN,47111.000000000000000,1932.000000000000000,CLARK
207,LUCKY STOP,0.000000000000000,-85.826660000000004,38.290936000000002,800 State St,New Albany,IN,47150.000000000000000,4738.000000000000000,FLOYD
208,DOLLAR GENERAL  0701,0.000000000000000,-85.667090999999999,38.448757000000001,900 Market St,Charlestown,IN,47111.000000000000000,1931.000000000000000,CLARK
209,DOLLAR GENERAL  0092,0.000000000000000,-85.703339000000000,38.312297999999998,1750 Allison Ln,Jeffersonville,IN,47130.000000000000000,5807.000000000000000,CLARK
210,DOLLAR GENERAL  2367,0.000000000000000,-85.724991000000003,38.301169999999999,1710 E 10th St,Jeffersonville,IN,47130.000000000000000,6290.000000000000000,CLARK
211,Dollar General 8056,0.000000000000000,-86.146118000000001,38.417907999999997,1210 Hwy 150,Palmyra,IN,47164.000000000000000,7805.000000000000000,HARRISON
212,DOLLAR GENERAL  8904,0.000000000000000,-85.782280000000000,38.697155000000002,899 N Gardner St,Scottsburg,IN,47170.000000000000000,1457.000000000000000,SCOTT
213,DOLLAR GENERAL  0970,0.000000000000000,-86.099914999999996,38.596801999999997,805 S Main St,Salem,IN,47167.000000000000000,1063.000000000000000,WASHINGTON
214,Dollar General 590,0.000000000000000,-85.803550999999999,38.318176000000001,2660 Charlestown Rd,New Albany,IN,47150.000000000000000,2538.000000000000000,FLOYD
215,DOLLAR GENERAL 2338,0.000000000000000,-85.761459000000002,38.298985000000002,636 Eastern Blvd,Clarksville,IN,47129.000000000000000,2454.000000000000000,CLARK
216,THORNTON OIL 22,0.000000000000000,-85.744240000000005,38.280155000000001,202 E 10th St,Jeffersonville,IN,47130.000000000000000,3645.000000000000000,CLARK
217,THORNTON OIL 47,0.000000000000000,-85.715546000000003,38.317070000000001,2980 Highway 62 E,Jeffersonville,IN,47130.000000000000000,5914.000000000000000,CLARK
218,THORNTON OIL  64,0.000000000000000,-85.751594999999995,38.320777999999997,3909 Highway 31 E,Clarksville,IN,47129.000000000000000,9200.000000000000000,CLARK
219,THORNTON OIL  11,0.000000000000000,-85.745659000000003,38.272568000000000,401 W Court Ave,Jeffersonville,IN,47130.000000000000000,3533.000000000000000,CLARK
220,THORNTON OIL  1,0.000000000000000,-85.842338999999996,38.307644000000003,2250 State St,New Albany,IN,47150.000000000000000,4925.000000000000000,FLOYD
221,KROGER  L-396,1.000000000000000,-85.840080000000000,38.305511000000003,200 New Albany Plz,New Albany,IN,47150.000000000000000,4658.000000000000000,FLOYD
222,KROGER L-276,1.000000000000000,-85.693199000000007,38.301613000000003,HWY 62 ALLISON,JEFFERSONVILLE,IN,47130.000000000000000,0.000000000000000,CLARK
223,Sav A Step Food Mart 3,0.000000000000000,-85.763428000000005,38.286835000000004,109 S Clark Blvd,Clarksville,IN,47129.000000000000000,2666.000000000000000,CLARK
224,Adams IGA Supermarket,1.000000000000000,-85.764663999999996,38.539248999999998,212 Pennsylvania St,Henryville,IN,47126.000000000000000,0.000000000000000,CLARK
225,Wilson's General Store,0.000000000000000,-85.974373000000000,38.121215999999997,8249 Beech St SE,Elizabeth,IN,47117.000000000000000,9022.000000000000000,HARRISON
226,Karem's Meats,0.000000000000000,-85.837531999999996,38.302962999999998,2110 State St,New Albany,IN,47150.000000000000000,4923.000000000000000,FLOYD
227,Schwans Home Service 101630,0.000000000000000,-85.832313999999997,38.341858000000002,4115 Capitol Dr,New Albany,IN,47150.000000000000000,2284.000000000000000,FLOYD
228,Circle K 2230,0.000000000000000,-85.818443000000002,38.332546000000001,3601 Grant Line Rd,New Albany,IN,47150.000000000000000,2145.000000000000000,FLOYD
229,Leroy's Food Mart,0.000000000000000,-85.628342000000004,38.650745000000001,7887 E Main St,Lexington,IN,47138.000000000000000,8611.000000000000000,SCOTT